{
  "53410": {
    "noradId": "53410",
    "tle": [
      "1 53410C 22097Y   25299.78937500  .00012395  00000+0  77711-3 0  2997",
      "2 53410  53.2172 355.2219 0001412  90.5365   2.9029 15.08832141    14"
    ]
  },
  "53411": {
    "noradId": "53411",
    "tle": [
      "1 53411C 22097Z   25299.79145833  .00012782  00000+0  80132-3 0  2990",
      "2 53411  53.2173 355.2133 0001354  93.6886 331.0622 15.08833973    17"
    ]
  },
  "53412": {
    "noradId": "53412",
    "tle": [
      "1 53412C 22097AA  25299.79006944  .00010745  00000+0  67373-3 0  2999",
      "2 53412  53.2169 355.2215 0001210  87.8160  69.4066 15.08831385    14"
    ]
  },
  "53413": {
    "noradId": "53413",
    "tle": [
      "1 53413C 22097AB  25299.78937500  .00009026  00000+0  56599-3 0  2998",
      "2 53413  53.2171 355.2230 0001434  88.4917  24.9576 15.08831746    13"
    ]
  },
  "53414": {
    "noradId": "53414",
    "tle": [
      "1 53414C 22097AC  25299.79006944  .00011641  00000+0  72987-3 0  2994",
      "2 53414  53.2163 355.2198 0001357  85.5123  91.7021 15.08831401    14"
    ]
  },
  "53415": {
    "noradId": "53415",
    "tle": [
      "1 53415C 22097AD  25299.79076389  .00013343  00000+0  83672-3 0  2999",
      "2 53415  53.2162 355.2178 0001432  78.1939 122.7298 15.08824924    12"
    ]
  },
  "53416": {
    "noradId": "53416",
    "tle": [
      "1 53416C 22097AE  25299.79006944  .00012352  00000+0  77454-3 0  2990",
      "2 53416  53.2163 355.1714 0001291  82.8665 194.3907 15.08827819    18"
    ]
  },
  "53417": {
    "noradId": "53417",
    "tle": [
      "1 53417C 22097AF  25299.78729167  .00012114  00000+0  75959-3 0  2993",
      "2 53417  53.2162 355.2334 0001395  90.7404 111.3819 15.08829492    11"
    ]
  },
  "53418": {
    "noradId": "53418",
    "tle": [
      "1 53418C 22097AG  25299.78937500  .00009700  00000+0  60817-3 0  2990",
      "2 53418  53.2163 344.7884 0001334  92.0948 336.6230 15.08835062    16"
    ]
  },
  "53419": {
    "noradId": "53419",
    "tle": [
      "1 53419C 22097AH  25299.78798611  .00012040  00000+0  75491-3 0  2994",
      "2 53419  53.2161 355.2301 0001449  87.4557 138.4367 15.08829861    16"
    ]
  },
  "53420": {
    "noradId": "53420",
    "tle": [
      "1 53420C 22097AJ  25299.79909722  .00008131  00000+0  50983-3 0  2999",
      "2 53420  53.2166 355.1800 0001320  88.2895 257.9974 15.08831570    19"
    ]
  },
  "53421": {
    "noradId": "53421",
    "tle": [
      "1 53421C 22097AK  25299.78937500  .00008857  00000+0  55538-3 0  2990",
      "2 53421  53.2164 355.2245 0001337  91.2114 162.2389 15.08831141    10"
    ]
  },
  "53422": {
    "noradId": "53422",
    "tle": [
      "1 53422C 22097AL  25299.78590278  .00007606  00000+0  47689-3 0  2997",
      "2 53422  53.2171 355.2391 0001339  84.6845 229.8822 15.08837744    17"
    ]
  },
  "53423": {
    "noradId": "53423",
    "tle": [
      "1 53423C 22097AM  25299.79909722  .00012698  00000+0  79612-3 0  2995",
      "2 53423  53.2163 355.1898 0001346  84.1281 236.9308 15.08833842    10"
    ]
  },
  "53424": {
    "noradId": "53424",
    "tle": [
      "1 53424C 22097AN  25299.79076389  .00011075  00000+0  69445-3 0  2991",
      "2 53424  53.2173 355.2163 0001372  91.4136 289.5762 15.08829201    19"
    ]
  },
  "53425": {
    "noradId": "53425",
    "tle": [
      "1 53425C 22097AP  25299.79354167  .00006575  00000+0  41224-3 0  2999",
      "2 53425  53.2169 355.2047 0001366  91.1450 244.9513 15.08835199    17"
    ]
  },
  "53426": {
    "noradId": "53426",
    "tle": [
      "1 53426C 22097AQ  25299.79284722  .00010196  00000+0  63923-3 0  2993",
      "2 53426  53.2171 345.3624 0001355  91.1603  56.0208 15.08834448    19"
    ]
  },
  "53429": {
    "noradId": "53429",
    "tle": [
      "1 53429C 22097AT  25299.79076389  .00010526  00000+0  65988-3 0  2994",
      "2 53429  53.2172 345.3315 0001367  89.7377  66.1491 15.08836437    10"
    ]
  },
  "53430": {
    "noradId": "53430",
    "tle": [
      "1 53430C 22097AU  25299.79006944  .00008141  00000+0  51032-3 0  2991",
      "2 53430  53.2171 345.2564 0001604  92.6431  99.5184 15.08840928    13"
    ]
  },
  "53431": {
    "noradId": "53431",
    "tle": [
      "1 53431C 22097AV  25299.79354167  .00005866  00000+0  36778-3 0  2996",
      "2 53431  53.2164 344.8205 0001490  89.2447 342.0568 15.08839649    15"
    ]
  },
  "53432": {
    "noradId": "53432",
    "tle": [
      "1 53432C 22097AW  25299.79076389  .00009334  00000+0  58531-3 0  2999",
      "2 53432  53.2164 344.9815 0001448  84.4322 251.7236 15.08828596    13"
    ]
  },
  "53433": {
    "noradId": "53433",
    "tle": [
      "1 53433C 22097AX  25299.79631944  .00010961  00000+0  68722-3 0  2995",
      "2 53433  53.2170 345.1878 0001350  90.6521 155.5215 15.08833920    10"
    ]
  },
  "53434": {
    "noradId": "53434",
    "tle": [
      "1 53434C 22097AY  25299.78937500  .00011578  00000+0  72626-3 0  2995",
      "2 53434  53.2162 344.9460 0001266  82.8767 265.7875 15.08815806    16"
    ]
  },
  "53435": {
    "noradId": "53435",
    "tle": [
      "1 53435C 22097AZ  25299.78798611  .00012160  00000+0  76247-3 0  2995",
      "2 53435  53.2167 345.0319 0001423  83.1587 217.8747 15.08829851    17"
    ]
  },
  "53436": {
    "noradId": "53436",
    "tle": [
      "1 53436C 22097BA  25299.78729167  .00008118  00000+0  50897-3 0  2997",
      "2 53436  53.2164 344.9178 0001414  85.6159 271.7093 15.08835776    14"
    ]
  },
  "53438": {
    "noradId": "53438",
    "tle": [
      "1 53438C 22097BC  25299.78659722  .00008209  00000+0  51483-3 0  2991",
      "2 53438  53.2162 344.8811 0001401  83.3488 290.2329 15.08827575    19"
    ]
  },
  "53439": {
    "noradId": "53439",
    "tle": [
      "1 53439C 22097BD  25299.79354167  .00011695  00000+0  73326-3 0  2991",
      "2 53439  53.2165 344.9739 0001421  83.6255 262.4211 15.08831339    14"
    ]
  },
  "53465": {
    "noradId": "53465",
    "tle": [
      "1 53465C 22099A   25299.79145833 -.00000760  00000+0 -52781-4 0  2996",
      "2 53465  97.6031  59.2331 0001480  91.2956 356.5660 15.05654349    13"
    ]
  },
  "53466": {
    "noradId": "53466",
    "tle": [
      "1 53466C 22099B   25299.78659722  .00010740  00000+0  83783-3 0  2995",
      "2 53466  97.6044  59.1165 0001659 242.5525 279.3141 15.01249346    12"
    ]
  },
  "53467": {
    "noradId": "53467",
    "tle": [
      "1 53467C 22099C   25299.79284722 -.00000739  00000+0 -51329-4 0  2992",
      "2 53467  97.6025  59.2932 0001181  89.8656  35.5064 15.05650668    15"
    ]
  },
  "53468": {
    "noradId": "53468",
    "tle": [
      "1 53468C 22099D   25299.79284722 -.00006287  00000+0 -49043-3 0  2996",
      "2 53468  97.6039  59.1239 0000496 102.7655 112.8680 15.01269269    14"
    ]
  },
  "53469": {
    "noradId": "53469",
    "tle": [
      "1 53469C 22099E   25299.78798611 -.00004134  00000+0 -28704-3 0  2993",
      "2 53469  97.6033  59.2537 0000855  90.3112  68.7409 15.05654752    17"
    ]
  },
  "53470": {
    "noradId": "53470",
    "tle": [
      "1 53470C 22099F   25299.76923611 -.00007162  00000+0 -55865-3 0  2995",
      "2 53470  97.6036  59.1024 0001885  89.9942   9.4325 15.01270214    13"
    ]
  },
  "53471": {
    "noradId": "53471",
    "tle": [
      "1 53471C 22099G   25299.79423611  .00006038  00000+0  41927-3 0  2997",
      "2 53471  97.6022  59.2094 0001597  90.1115 357.8272 15.05643051    11"
    ]
  },
  "53472": {
    "noradId": "53472",
    "tle": [
      "1 53472C 22099H   25299.79006944 -.00009918  00000+0 -77363-3 0  2999",
      "2 53472  97.6032  59.1279 0001983  91.3611 140.5890 15.01273980    19"
    ]
  },
  "53473": {
    "noradId": "53473",
    "tle": [
      "1 53473C 22099J   25299.78937500 -.00002332  00000+0 -16191-3 0  2995",
      "2 53473  97.6038  59.2704 0001085  85.9390 155.6202 15.05655713    12"
    ]
  },
  "53474": {
    "noradId": "53474",
    "tle": [
      "1 53474C 22099K   25299.79076389 -.00001021  00000+0 -79643-4 0  2992",
      "2 53474  97.6033  59.1269 0003599  86.5554 217.8223 15.01266724    14"
    ]
  },
  "53475": {
    "noradId": "53475",
    "tle": [
      "1 53475C 22099L   25299.79076389 -.00005028  00000+0 -39217-3 0  2996",
      "2 53475  97.6028  59.1293 0002441  92.1367 183.5642 15.01269767    10"
    ]
  },
  "53476": {
    "noradId": "53476",
    "tle": [
      "1 53476C 22099M   25299.78798611 -.00004587  00000+0 -35776-3 0  2990",
      "2 53476  97.6016  59.1323 0002406  91.1416 149.5590 15.01268221    15"
    ]
  },
  "53477": {
    "noradId": "53477",
    "tle": [
      "1 53477C 22099N   25299.78729167 -.00003527  00000+0 -27508-3 0  2998",
      "2 53477  97.6042  59.0802 0001411 219.7101 317.2194 15.01268271    19"
    ]
  },
  "53478": {
    "noradId": "53478",
    "tle": [
      "1 53478C 22099P   25299.78798611 -.00005275  00000+0 -41146-3 0  2995",
      "2 53478  97.6032  59.1379 0002643  90.7900 189.9165 15.01269174    16"
    ]
  },
  "53479": {
    "noradId": "53479",
    "tle": [
      "1 53479C 22099Q   25299.79215278  .00001939  00000+0  13467-3 0  2996",
      "2 53479  97.6032  59.3068 0001726  89.7191 286.8870 15.05647782    14"
    ]
  },
  "53480": {
    "noradId": "53480",
    "tle": [
      "1 53480C 22099R   25299.79215278 -.00004679  00000+0 -32487-3 0  2997",
      "2 53480  97.6020  59.2205 0001243  91.2345  60.4054 15.05655365    14"
    ]
  },
  "53481": {
    "noradId": "53481",
    "tle": [
      "1 53481C 22099S   25299.79145833 -.00002433  00000+0 -18978-3 0  2992",
      "2 53481  97.6033  59.1273 0003060  82.4129 237.0369 15.01268705    19"
    ]
  },
  "53482": {
    "noradId": "53482",
    "tle": [
      "1 53482C 22099T   25299.79215278  .00010946  00000+0  85351-3 0  2999",
      "2 53482  97.6030  59.1519 0001280  99.1166 283.9806 15.01265682    15"
    ]
  }
}